{
  "norad_id": 2874,
  "name": "OPS 5712 (P/L 153)",
  "history": [
    {
      "epoch": "2026-03-28T22:05:42.285120",
      "apogee_km": 911.9306836757214,
      "perigee_km": 897.7546550684756,
      "latitude_deg": 31.601453780944933,
      "longitude_deg": -44.219683200120926,
      "semi_major_axis_km": 7282.979669372098,
      "eccentricity": 0.00097323,
      "inclination_deg": 69.9725,
      "raan_deg": 287.3509,
      "arg_perigee_deg": 291.5741,
      "mean_anomaly_deg": 68.4327,
      "mean_motion_rev_day": 13.96815725
    },
    {
      "epoch": "2026-03-28T23:48:49.378752",
      "apogee_km": 911.9348001803664,
      "perigee_km": 897.7504690439955,
      "latitude_deg": -43.84414499034672,
      "longitude_deg": -37.34513472020626,
      "semi_major_axis_km": 7282.979634612181,
      "eccentricity": 0.0009738,
      "inclination_deg": 69.9726,
      "raan_deg": 287.1974,
      "arg_perigee_deg": 291.5226,
      "mean_anomaly_deg": 68.4841,
      "mean_motion_rev_day": 13.96815735
    }
  ]
}